NORAD_CAT_ID,OBJECT_NAME,OBJECT_TYPE,EPOCH,MEAN_MOTION,ECCENTRICITY,INCLINATION,RA_OF_ASC_NODE,ARG_OF_PERICENTER,MEAN_ANOMALY,BSTAR,MEAN_MOTION_DOT,MEAN_MOTION_DDOT,TLE_LINE0,TLE_LINE1,TLE_LINE2,SEMIMAJOR_AXIS,PERIOD,APOGEE,PERIGEE,DECAYED
50813.0,STARLINK-3349,PAYLOAD,2024-08-14 05:01:07,15.08805189,0.0001271,53.2137,209.0383,97.0014,263.1123,0.0013969,0.00021992,0.0,0 STARLINK-3349,1 50813U 22001L   24227.20911985  .00021992  00000-0  13969-2 0  9997,2 50813  53.2137 209.0383 0001271  97.0014 263.1123 15.08805189145370,6917.987,95.44,540.731,538.973,0.0
50813.0,STARLINK-3349,PAYLOAD,2024-08-14 06:36:31,15.08809432,0.0001259,53.2136,208.7415,98.4382,261.6752,0.0016311,0.00025745,0.0,0 STARLINK-3349,1 50813U 22001L   24227.27536159  .00025745  00000-0  16311-2 0  9994,2 50813  53.2136 208.7415 0001259  98.4382 261.6752 15.08809432144139,6917.974,95.439,540.71,538.968,0.0
50813.0,STARLINK-3349,PAYLOAD,2024-08-15 04:51:55,15.08853491,0.0001237,53.2133,204.5789,97.2953,262.818,0.0015356,0.00024245,0.0,0 STARLINK-3349,1 50813U 22001L   24228.20272741  .00024245  00000-0  15356-2 0  9994,2 50813  53.2133 204.5789 0001237  97.2953 262.8180 15.08853491144278,6917.839,95.437,540.56,538.848,0.0
50813.0,STARLINK-3349,PAYLOAD,2024-08-15 15:59:37,15.08869919,0.0001214,53.2137,202.4955,103.3499,256.7629,0.0012888,0.000203,0.0,0 STARLINK-3349,1 50813U 22001L   24228.66640077  .00020300  00000-0  12888-2 0  9990,2 50813  53.2137 202.4955 0001214 103.3499 256.7629 15.08869919145591,6917.789,95.436,540.494,538.814,0.0
50813.0,STARLINK-3349,PAYLOAD,2024-08-16 04:42:41,15.08878615,0.0001266,53.2139,200.1182,98.4979,261.6156,0.0010014,0.00015702,0.0,0 STARLINK-3349,1 50813U 22001L   24229.19631173  .00015702  00000-0  10014-2 0  9995,2 50813  53.2139 200.1182 0001266  98.4979 261.6156 15.08878615145676,6917.762,95.435,540.503,538.752,0.0
50813.0,STARLINK-3349,PAYLOAD,2024-08-17 02:58:04,15.0885616,0.0001418,53.2145,195.9494,107.1805,252.9343,0.00012252,1.663e-05,0.0,0 STARLINK-3349,1 50813U 22001L   24230.12366288  .00001663  00000-0  12252-3 0  9990,2 50813  53.2145 195.9494 0001418 107.1805 252.9343 15.08856160145813,6917.831,95.437,540.677,538.715,0.0
50813.0,STARLINK-3349,PAYLOAD,2024-08-17 07:44:13,15.08851478,0.0001266,53.2148,195.0629,98.0024,262.1112,-7.345e-05,-1.457e-05,0.0,0 STARLINK-3349,1 50813U 22001L   24230.32238395 -.00001457  00000-0 -73450-4 0  9990,2 50813  53.2148 195.0629 0001266  98.0024 262.1112 15.08851478144597,6917.845,95.437,540.586,538.835,0.0
50813.0,STARLINK-3349,PAYLOAD,2024-08-18 04:24:15,15.0884539,0.0001444,53.2167,191.1957,108.7933,251.3216,-7.367e-05,-1.46e-05,0.0,0 STARLINK-3349,1 50813U 22001L   24231.18350817 -.00001460  00000-0 -73670-4 0  9997,2 50813  53.2167 191.1957 0001444 108.7933 251.3216 15.08845390145979,6917.864,95.437,540.728,538.73,0.0
50813.0,STARLINK-3349,PAYLOAD,2024-08-18 21:53:29,15.08834801,0.0001336,53.2164,187.9236,98.8461,261.2682,5.9937e-05,6.66e-06,0.0,0 STARLINK-3349,1 50813U 22001L   24231.91214921  .00000666  00000-0  59937-4 0  9998,2 50813  53.2164 187.9236 0001336  98.8461 261.2682 15.08834801144830,6917.896,95.438,540.686,538.837,0.0
50813.0,STARLINK-3349,PAYLOAD,2024-08-19 04:15:02,15.08833885,0.000127,53.2165,186.7356,90.0615,270.0523,2.9867e-05,1.87e-06,0.0,0 STARLINK-3349,1 50813U 22001L   24232.17711181  .00000187  00000-0  29867-4 0  9994,2 50813  53.2165 186.7356 0001270  90.0615 270.0523 15.08833885146120,6917.899,95.438,540.643,538.886,0.0
50813.0,STARLINK-3349,PAYLOAD,2024-08-20 07:16:36,15.08829199,0.0001345,53.2166,181.6815,83.2478,276.8667,-1.4797e-05,-5.23e-06,0.0,0 STARLINK-3349,1 50813U 22001L   24233.30320129 -.00000523  00000-0 -14797-4 0  9990,2 50813  53.2166 181.6815 0001345  83.2478 276.8667 15.08829199146293,6917.913,95.438,540.709,538.848,0.0
50813.0,STARLINK-3349,PAYLOAD,2024-08-21 03:56:36,15.08839228,0.0001555,53.2167,177.816,77.9477,282.1689,0.0001202,1.625e-05,0.0,0 STARLINK-3349,1 50813U 22001L   24234.16431620  .00001625  00000-0  12020-3 0  9992,2 50813  53.2167 177.8160 0001555  77.9477 282.1689 15.08839228146429,6917.883,95.438,540.823,538.672,0.0
50813.0,STARLINK-3349,PAYLOAD,2024-08-21 05:31:59,15.08841561,0.0001494,53.2166,177.5186,78.2945,281.8215,0.00014036,1.947e-05,0.0,0 STARLINK-3349,1 50813U 22001L   24234.23055435  .00001947  00000-0  14036-3 0  9992,2 50813  53.2166 177.5186 0001494  78.2945 281.8215 15.08841561145185,6917.876,95.437,540.774,538.707,0.0
